COSMOS 2503             
1 40420U 15009A   26068.69626972  .00002817  00000+0  19590-3 0  9998
2 40420  97.8437 123.7175 0015321 225.7450 134.2520 15.06275973603958
STARLINK-4456           
1 53673U 22105AB  26068.65284294 -.00000095  00000+0 -23807-5 0  9996
2 53673  97.6019 311.1920 0002237  83.0977 277.0504 15.05648277193297
