[{"OBJECT_NAME":"COSMOS 2503","OBJECT_ID":"2015-009A","EPOCH":"2026-03-09T16:42:37.703808","MEAN_MOTION":15.06275973,"ECCENTRICITY":0.00153206,"INCLINATION":97.8437,"RA_OF_ASC_NODE":123.7175,"ARG_OF_PERICENTER":225.745,"MEAN_ANOMALY":134.252,"EPHEMERIS_TYPE":0,"CLASSIFICATION_TYPE":"U","NORAD_CAT_ID":40420,"ELEMENT_SET_NO":999,"REV_AT_EPOCH":60395,"BSTAR":0.00019589832,"MEAN_MOTION_DOT":2.817e-5,"MEAN_MOTION_DDOT":0},{"OBJECT_NAME":"STARLINK-4456","OBJECT_ID":"2022-105AB","EPOCH":"2026-03-09T15:40:05.630016","MEAN_MOTION":15.05648277,"ECCENTRICITY":0.0002237,"INCLINATION":97.6019,"RA_OF_ASC_NODE":311.192,"ARG_OF_PERICENTER":83.0977,"MEAN_ANOMALY":277.0504,"EPHEMERIS_TYPE":0,"CLASSIFICATION_TYPE":"U","NORAD_CAT_ID":53673,"ELEMENT_SET_NO":999,"REV_AT_EPOCH":19329,"BSTAR":-2.3807e-6,"MEAN_MOTION_DOT":-9.5e-7,"MEAN_MOTION_DDOT":0}]
